*******************************************************************************
Ephemeris / WWW_USER Thu Feb  4 09:42:24 2021 Pasadena, USA      / Horizons    
*******************************************************************************
Target body name: Saturn (699)                    {source: sat427l_merged_DE438}
Center body name: Earth (399)                     {source: sat427l_merged_DE438}
Center-site name: GEOCENTRIC
*******************************************************************************
Start time      : A.D. 2020-Jan-01 00:00:00.0000 UT      
Stop  time      : A.D. 2029-Dec-31 00:00:00.0000 UT      
Step-size       : 2880 minutes
*******************************************************************************
Target pole/equ : IAU_SATURN                      {West-longitude positive}
Target radii    : 60268.0 x 60268.0 x 54364.0 km  {Equator, meridian, pole}    
Center geodetic : 0.00000000,0.00000000,0.0000000 {E-lon(deg),Lat(deg),Alt(km)}
Center cylindric: 0.00000000,0.00000000,0.0000000 {E-lon(deg),Dxy(km),Dz(km)}
Center pole/equ : High-precision EOP model        {East-longitude positive}
Center radii    : 6378.1 x 6378.1 x 6356.8 km     {Equator, meridian, pole}    
Target primary  : Sun
Vis. interferer : MOON (R_eq= 1737.400) km        {source: DE431mx}
Rel. light bend : Sun, EARTH                      {source: sat427l_merged_DE438
Rel. lght bnd GM: 1.3271E+11, 3.9860E+05 km^3/s^2                              
Atmos refraction: NO (AIRLESS)
RA format       : DEG
Time format     : CAL 
EOP file        : eop.210203.p210427                                           
EOP coverage    : DATA-BASED 1962-JAN-20 TO 2021-FEB-03. PREDICTS-> 2021-APR-26
Units conversion: 1 au= 149597870.700 km, c= 299792.458 km/s, 1 day= 86400.0 s 
Table cut-offs 1: Elevation (-90.0deg=NO ),Airmass (>38.000=NO), Daylight (NO )
Table cut-offs 2: Solar elongation (  0.0,180.0=NO ),Local Hour Angle( 0.0=NO )
Table cut-offs 3: RA/DEC angular rate (     0.0=NO )                           
Table format    : Comma Separated Values (spreadsheet)
*******************************************************************************
 Date__(UT)__HR:MN, , ,    ObsEcLon,   ObsEcLat,
************************************************
$$SOE
 2026-Jan-21 00:00, , , 357.6227299, -2.1994453,
 2026-Jan-23 00:00, , , 357.7975238, -2.1942916,
 2026-Jan-25 00:00, , , 357.9770520, -2.1893022,
 2026-Jan-27 00:00, , , 358.1612013, -2.1844804,
 2026-Jan-29 00:00, , , 358.3498285, -2.1798280,
 2026-Jan-31 00:00, , , 358.5427293, -2.1753463,
 2026-Feb-02 00:00, , , 358.7396772, -2.1710370,
 2026-Feb-04 00:00, , , 358.9405019, -2.1669025,
 2026-Feb-06 00:00, , , 359.1451059, -2.1629460,
 2026-Feb-08 00:00, , , 359.3534029, -2.1591695,
 2026-Feb-10 00:00, , , 359.5652756, -2.1555739,
 2026-Feb-12 00:00, , , 359.7805707, -2.1521593,
 2026-Feb-14 00:00, , , 359.9991080, -2.1489259,
 2026-Feb-16 00:00, , ,   0.2206915, -2.1458752,
 2026-Feb-18 00:00, , ,   0.4451289, -2.1430101,
 2026-Feb-20 00:00, , ,   0.6722629, -2.1403362,
 2026-Feb-22 00:00, , ,   0.9019751, -2.1378586,
 2026-Feb-24 00:00, , ,   1.1341464, -2.1355810,
 2026-Feb-26 00:00, , ,   1.3686048, -2.1335040,
 2026-Feb-28 00:00, , ,   1.6051283, -2.1316264,
 2026-Mar-02 00:00, , ,   1.8435005, -2.1299453,
 2026-Mar-04 00:00, , ,   2.0835678, -2.1284582,
 2026-Mar-06 00:00, , ,   2.3252346, -2.1271645,
 2026-Mar-08 00:00, , ,   2.5684109, -2.1260652,
 2026-Mar-10 00:00, , ,   2.8129768, -2.1251630,
 2026-Mar-12 00:00, , ,   3.0587774, -2.1244593,
 2026-Mar-14 00:00, , ,   3.3056349, -2.1239547,
 2026-Mar-16 00:00, , ,   3.5533584, -2.1236489,
 2026-Mar-18 00:00, , ,   3.8017658, -2.1235423,
 2026-Mar-20 00:00, , ,   4.0507124, -2.1236367,
 2026-Mar-22 00:00, , ,   4.3000914, -2.1239379,
 2026-Mar-24 00:00, , ,   4.5497695, -2.1244569,
 2026-Mar-26 00:00, , ,   4.7995334, -2.1251688,
 2026-Mar-28 00:00, , ,   5.0492241, -2.1260513,
 2026-Mar-30 00:00, , ,   5.2986556, -2.1271500,
 2026-Apr-01 00:00, , ,   5.5476877, -2.1284569,
 2026-Apr-03 00:00, , ,   5.7962302, -2.1299629,
 2026-Apr-05 00:00, , ,   6.0441870, -2.1316637,
 2026-Apr-07 00:00, , ,   6.2914308, -2.1335585,
 2026-Apr-09 00:00, , ,   6.5378070, -2.1356488,
 2026-Apr-11 00:00, , ,   6.7831475, -2.1379371,
 2026-Apr-13 00:00, , ,   7.0272794, -2.1404250,
 2026-Apr-15 00:00, , ,   7.2700433, -2.1431130,
 2026-Apr-17 00:00, , ,   7.5113141, -2.1460004,
 2026-Apr-19 00:00, , ,   7.7509943, -2.1490864,
 2026-Apr-21 00:00, , ,   7.9889439, -2.1523698,
 2026-Apr-23 00:00, , ,   8.2249532, -2.1558497,
 2026-Apr-25 00:00, , ,   8.4588155, -2.1595258,
 2026-Apr-27 00:00, , ,   8.6903881, -2.1633974,
 2026-Apr-29 00:00, , ,   8.9195827, -2.1674628,
 2026-May-01 00:00, , ,   9.1463211, -2.1717185,
 2026-May-03 00:00, , ,   9.3705036, -2.1761611,
 2026-May-05 00:00, , ,   9.5919952, -2.1807871,
 2026-May-07 00:00, , ,   9.8106358, -2.1855945,
 2026-May-09 00:00, , ,  10.0262574, -2.1905833,
 2026-May-11 00:00, , ,  10.2387015, -2.1957554,
 2026-May-13 00:00, , ,  10.4478336, -2.2011134,
 2026-May-15 00:00, , ,  10.6535520, -2.2066580,
 2026-May-17 00:00, , ,  10.8557672, -2.2123885,
 2026-May-19 00:00, , ,  11.0543270, -2.2183013,
 2026-May-21 00:00, , ,  11.2490087, -2.2243914,
 2026-May-23 00:00, , ,  11.4396159, -2.2306534,
 2026-May-25 00:00, , ,  11.6260372, -2.2370833,
 2026-May-27 00:00, , ,  11.8082078, -2.2436788,
 2026-May-29 00:00, , ,  11.9860607, -2.2504383,
 2026-May-31 00:00, , ,  12.1595003, -2.2573595,
 2026-Jun-02 00:00, , ,  12.3283970, -2.2644383,
 2026-Jun-04 00:00, , ,  12.4925984, -2.2716707,
 2026-Jun-06 00:00, , ,  12.6519468, -2.2790520,
 2026-Jun-08 00:00, , ,  12.8062997, -2.2865795,
 2026-Jun-10 00:00, , ,  12.9555450, -2.2942514,
 2026-Jun-12 00:00, , ,  13.0996045, -2.3020678,
 2026-Jun-14 00:00, , ,  13.2383999, -2.3100280,
 2026-Jun-16 00:00, , ,  13.3717841, -2.3181283,
 2026-Jun-18 00:00, , ,  13.4995515, -2.3263617,
 2026-Jun-20 00:00, , ,  13.6215453, -2.3347185,
 2026-Jun-22 00:00, , ,  13.7376993, -2.3431892,
 2026-Jun-24 00:00, , ,  13.8479769, -2.3517649,
 2026-Jun-26 00:00, , ,  13.9523281, -2.3604397,
 2026-Jun-28 00:00, , ,  14.0506769, -2.3692090,
 2026-Jun-30 00:00, , ,  14.1429247, -2.3780694,
 2026-Jul-02 00:00, , ,  14.2289591, -2.3870159,
 2026-Jul-04 00:00, , ,  14.3086695, -2.3960417,
 2026-Jul-06 00:00, , ,  14.3819666, -2.4051395,
 2026-Jul-08 00:00, , ,  14.4487917, -2.4143010,
 2026-Jul-10 00:00, , ,  14.5091106, -2.4235190,
 2026-Jul-12 00:00, , ,  14.5628735, -2.4327863,
 2026-Jul-14 00:00, , ,  14.6099727, -2.4420961,
 2026-Jul-16 00:00, , ,  14.6502727, -2.4514395,
 2026-Jul-18 00:00, , ,  14.6837107, -2.4608053,
 2026-Jul-20 00:00, , ,  14.7103122, -2.4701799,
 2026-Jul-22 00:00, , ,  14.7301173, -2.4795491,
 2026-Jul-24 00:00, , ,  14.7431410, -2.4888997,
 2026-Jul-26 00:00, , ,  14.7493720, -2.4982195,
 2026-Jul-28 00:00, , ,  14.7487877, -2.5074991,
 2026-Jul-30 00:00, , ,  14.7413665, -2.5167304,
 2026-Aug-01 00:00, , ,  14.7271067, -2.5259063,
 2026-Aug-03 00:00, , ,  14.7060381, -2.5350173,
 2026-Aug-05 00:00, , ,  14.6782231, -2.5440522,
 2026-Aug-07 00:00, , ,  14.6437341, -2.5529977,
 2026-Aug-09 00:00, , ,  14.6026120, -2.5618390,
 2026-Aug-11 00:00, , ,  14.5548516, -2.5705612,
 2026-Aug-13 00:00, , ,  14.5004558, -2.5791491,
 2026-Aug-15 00:00, , ,  14.4395221, -2.5875894,
 2026-Aug-17 00:00, , ,  14.3722308, -2.5958681,
 2026-Aug-19 00:00, , ,  14.2987689, -2.6039713,
 2026-Aug-21 00:00, , ,  14.2192904, -2.6118835,
 2026-Aug-23 00:00, , ,  14.1339260, -2.6195896,
 2026-Aug-25 00:00, , ,  14.0427986, -2.6270750,
 2026-Aug-27 00:00, , ,  13.9460382, -2.6343267,
 2026-Aug-29 00:00, , ,  13.8438050, -2.6413347,
 2026-Aug-31 00:00, , ,  13.7363038, -2.6480908,
 2026-Sep-02 00:00, , ,  13.6237761, -2.6545869,
 2026-Sep-04 00:00, , ,  13.5064550, -2.6608120,
 2026-Sep-06 00:00, , ,  13.3845307, -2.6667528,
 2026-Sep-08 00:00, , ,  13.2581631, -2.6723934,
 2026-Sep-10 00:00, , ,  13.1275478, -2.6777175,
 2026-Sep-12 00:00, , ,  12.9929703, -2.6827103,
 2026-Sep-14 00:00, , ,  12.8547791, -2.6873601,
 2026-Sep-16 00:00, , ,  12.7133204, -2.6916591,
 2026-Sep-18 00:00, , ,  12.5689060, -2.6956002,
 2026-Sep-20 00:00, , ,  12.4218248, -2.6991770,
 2026-Sep-22 00:00, , ,  12.2723557, -2.7023819,
 2026-Sep-24 00:00, , ,  12.1207833, -2.7052079,
 2026-Sep-26 00:00, , ,  11.9674141, -2.7076489,
 2026-Sep-28 00:00, , ,  11.8125933, -2.7097013,
 2026-Sep-30 00:00, , ,  11.6566893, -2.7113638,
 2026-Oct-02 00:00, , ,  11.5000417, -2.7126361,
 2026-Oct-04 00:00, , ,  11.3429380, -2.7135177,
 2026-Oct-06 00:00, , ,  11.1856537, -2.7140051,
 2026-Oct-08 00:00, , ,  11.0285161, -2.7140942,
 2026-Oct-10 00:00, , ,  10.8719162, -2.7137799,
 2026-Oct-12 00:00, , ,  10.7162680, -2.7130600,
 2026-Oct-14 00:00, , ,  10.5619569, -2.7119350,
 2026-Oct-16 00:00, , ,  10.4093266, -2.7104097,
 2026-Oct-18 00:00, , ,  10.2586955, -2.7084925,
 2026-Oct-20 00:00, , ,  10.1103712, -2.7061925,
 2026-Oct-22 00:00, , ,   9.9646602, -2.7035187,
 2026-Oct-24 00:00, , ,   9.8218781, -2.7004785,
 2026-Oct-26 00:00, , ,   9.6823618, -2.6970799,
 2026-Oct-28 00:00, , ,   9.5464428, -2.6933303,
 2026-Oct-30 00:00, , ,   9.4143923, -2.6892382,
 2026-Nov-01 00:00, , ,   9.2864196, -2.6848130,
 2026-Nov-03 00:00, , ,   9.1627493, -2.6800655,
 2026-Nov-05 00:00, , ,   9.0436697, -2.6750067,
 2026-Nov-07 00:00, , ,   8.9295033, -2.6696464,
 2026-Nov-09 00:00, , ,   8.8205570, -2.6639945,
 2026-Nov-11 00:00, , ,   8.7170867, -2.6580609,
 2026-Nov-13 00:00, , ,   8.6192972, -2.6518576,
 2026-Nov-15 00:00, , ,   8.5273616, -2.6453983,
 2026-Nov-17 00:00, , ,   8.4414440, -2.6386999,
 2026-Nov-19 00:00, , ,   8.3617118, -2.6317812,
 2026-Nov-21 00:00, , ,   8.2883420, -2.6246606,
 2026-Nov-23 00:00, , ,   8.2215211, -2.6173548,
 2026-Nov-25 00:00, , ,   8.1614105, -2.6098773,
 2026-Nov-27 00:00, , ,   8.1080908, -2.6022400,
 2026-Nov-29 00:00, , ,   8.0615785, -2.5944526,
 2026-Dec-01 00:00, , ,   8.0219313, -2.5865261,
